NORAD_CAT_ID,OBJECT_NAME,OBJECT_TYPE,EPOCH,MEAN_MOTION,ECCENTRICITY,INCLINATION,RA_OF_ASC_NODE,ARG_OF_PERICENTER,MEAN_ANOMALY,BSTAR,MEAN_MOTION_DOT,MEAN_MOTION_DDOT,TLE_LINE0,TLE_LINE1,TLE_LINE2,SEMIMAJOR_AXIS,PERIOD,APOGEE,PERIGEE,DECAYED
52101.0,STARLINK-3703,PAYLOAD,2022-07-25 14:00:01,15.08825876,0.0001514,53.2174,268.7727,60.7417,340.9361,0.0025408,0.00040365,0.0,0 STARLINK-3703,1 52101U 22029P   22206.58334491  .00040365  00000-0  25408-2 0  9992,2 52101  53.2174 268.7727 0001514  60.7417 340.9361 15.08825876  1308,6917.924,95.438,540.836,538.741,0.0
52101.0,STARLINK-3703,PAYLOAD,2022-07-25 22:00:00,15.08851767,0.0001405,53.2175,267.2747,65.0612,348.216,-0.00018256,-3.193e-05,0.0,0 STARLINK-3703,1 52101U 22029P   22206.91667824 -.00003193  00000-0 -18256-3 0  9992,2 52101  53.2175 267.2747 0001405  65.0612 348.2160 15.08851767  1305,6917.844,95.437,540.681,538.737,0.0
52101.0,STARLINK-3703,PAYLOAD,2022-07-26 06:00:00,15.08877756,0.0001414,53.2175,265.7785,66.6156,358.2587,-0.0028289,-0.00045075,0.0,0 STARLINK-3703,1 52101U 22029P   22207.25001157 -.00045075  00000-0 -28289-2 0  9992,2 52101  53.2175 265.7785 0001414  66.6156 358.2587 15.08877756 21009,6917.765,95.435,540.6080000000002,538.6519999999998,0.0
52101.0,STARLINK-3703,PAYLOAD,2022-07-26 14:00:01,15.08814006,0.000145,53.2175,264.2837,56.896,19.6075,0.0022175999999999,0.00035156,0.0,0 STARLINK-3703,1 52101U 22029P   22207.58334491  .00035156  00000-0  22176-2 0  9994,2 52101  53.2175 264.2837 0001450  56.8960  19.6075 15.08814006  1305,6917.96,95.439,540.828,538.822,0.0
52101.0,STARLINK-3703,PAYLOAD,2022-07-26 22:00:00,15.08830083,0.0001315999999999,53.2176,262.7858,62.2952,25.7914,0.0002325,3.413e-05,0.0,0 STARLINK-3703,1 52101U 22029P   22207.91667824  .00003413  00000-0  23250-3 0  9996,2 52101  53.2176 262.7858 0001316  62.2952  25.7914 15.08830083  1308,6917.911,95.438,540.686,538.865,0.0
52101.0,STARLINK-3703,PAYLOAD,2022-07-27 06:00:02,15.0885478,0.0001372,53.2176,261.2892,63.9855,35.7471,-0.0013315,-0.00021425,0.0,0 STARLINK-3703,1 52101U 22029P   22208.25002315 -.00021425  00000-0 -13315-2 0  9997,2 52101  53.2176 261.2892 0001372  63.9855  35.7471 15.08854780 21156,6917.835,95.437,540.649,538.751,0.0
52101.0,STARLINK-3703,PAYLOAD,2022-07-27 14:00:01,15.08818462,0.0001453999999999,53.2174,259.7949,55.0549,56.2229,0.002916,0.00046398,0.0,0 STARLINK-3703,1 52101U 22029P   22208.58334491  .00046398  00000-0  29160-2 0  9995,2 52101  53.2174 259.7949 0001454  55.0549  56.2229 15.08818462  1303,6917.946,95.439,540.817,538.805,0.0
52101.0,STARLINK-3703,PAYLOAD,2022-07-27 22:00:00,15.08837361,0.0001302,53.2174,258.2969,61.9704,60.9038,0.00076625,0.00011927,0.0,0 STARLINK-3703,1 52101U 22029P   22208.91667824  .00011927  00000-0  76625-3 0  9990,2 52101  53.2174 258.2969 0001302  61.9704  60.9038 15.08837361  1309,6917.888000000001,95.438,540.654,538.8530000000002,0.0
52101.0,STARLINK-3703,PAYLOAD,2022-07-28 06:00:00,15.08865104,0.0001357,53.2174,256.8009,63.3948,71.0708,-0.0015702,-0.00025208,0.0,0 STARLINK-3703,1 52101U 22029P   22209.25001157 -.00025208  00000-0 -15702-2 0  9996,2 52101  53.2174 256.8009 0001357  63.3948  71.0708 15.08865104 21309,6917.804,95.436,540.607,538.73,0.0
52101.0,STARLINK-3703,PAYLOAD,2022-07-28 14:00:01,15.08836201,0.0001476999999999,53.217,255.3059,54.9809,91.1015,0.0012331,0.00019389,0.0,0 STARLINK-3703,1 52101U 22029P   22209.58334491  .00019389  00000-0  12331-2 0  9998,2 52101  53.2170 255.3059 0001477  54.9809  91.1015 15.08836201  1307,6917.892,95.438,540.779,538.735,0.0
52101.0,STARLINK-3703,PAYLOAD,2022-07-28 22:00:00,15.08819851,0.0001361999999999,53.2169,253.8078,63.9416,93.7498,0.00036491,5.521e-05,0.0,0 STARLINK-3703,1 52101U 22029P   22209.91667824  .00005521  00000-0  36491-3 0  9991,2 52101  53.2169 253.8078 0001362  63.9416  93.7498 15.08819851  1301,6917.941999999999,95.439,540.749,538.865,0.0
52101.0,STARLINK-3703,PAYLOAD,2022-07-29 06:00:00,15.08843942,0.0001446,53.2169,252.3121,65.3575,103.9055,-0.001764,-0.00028255,0.0,0 STARLINK-3703,1 52101U 22029P   22210.25001157 -.00028255  00000-0 -17640-2 0  9996,2 52101  53.2169 252.3121 0001446  65.3575 103.9055 15.08843942 21458,6917.868,95.437,540.734,538.7330000000002,0.0
52101.0,STARLINK-3703,PAYLOAD,2022-07-29 14:00:01,15.08806866,0.0001528,53.2163,250.8169,57.2547,123.5972,0.0025781,0.00040944,0.0,0 STARLINK-3703,1 52101U 22029P   22210.58334491  .00040944  00000-0  25781-2 0  9994,2 52101  53.2163 250.8169 0001528  57.2547 123.5972 15.08806866  1309,6917.982,95.44,540.904,538.79,0.0
52101.0,STARLINK-3703,PAYLOAD,2022-07-29 22:00:00,15.08812226,0.000138,53.2162,249.3188,65.1418,127.2893,0.0015384,0.00024262,0.0,0 STARLINK-3703,1 52101U 22029P   22210.91667824  .00024262  00000-0  15384-2 0  9993,2 52101  53.2162 249.3188 0001380  65.1418 127.2893 15.08812226  1303,6917.965,95.439,540.785,538.876,0.0
52101.0,STARLINK-3703,PAYLOAD,2022-07-30 06:00:00,15.08844979,0.0001457,53.2162,247.8233,65.384,138.6163,-0.0018625999999999,-0.00029813,0.0,0 STARLINK-3703,1 52101U 22029P   22211.25001157 -.00029813  00000-0 -18626-2 0  9993,2 52101  53.2162 247.8233 0001457  65.3840 138.6163 15.08844979 21604,6917.865,95.437,540.738,538.722,0.0
52101.0,STARLINK-3703,PAYLOAD,2022-07-30 14:00:01,15.08812744,0.0001533,53.2157,246.3279,57.6092,157.9812,0.0020943,0.00033175,0.0,0 STARLINK-3703,1 52101U 22029P   22211.58334491  .00033175  00000-0  20943-2 0  9998,2 52101  53.2157 246.3279 0001533  57.6092 157.9812 15.08812744  1305,6917.964,95.439,540.889,538.768,0.0
52101.0,STARLINK-3703,PAYLOAD,2022-07-30 22:00:00,15.08811489,0.0001406999999999,53.2157,244.8296,65.1134,162.0619,0.0019116,0.00030242,0.0,0 STARLINK-3703,1 52101U 22029P   22211.91667824  .00030242  00000-0  19116-2 0  9996,2 52101  53.2157 244.8296 0001407  65.1134 162.0619 15.08811489 21701,6917.968000000003,95.439,540.806,538.859,0.0
52101.0,STARLINK-3703,PAYLOAD,2022-07-31 14:00:01,15.08820129,0.0001565999999999,53.2154,241.8386,57.0323,193.3051,0.0015651,0.00024695,0.0,0 STARLINK-3703,1 52101U 22029P   22212.58334491  .00024695  00000-0  15651-2 0  9996,2 52101  53.2154 241.8386 0001566  57.0323 193.3051 15.08820129  1303,6917.941,95.439,540.889,538.7230000000002,0.0
52101.0,STARLINK-3703,PAYLOAD,2022-07-31 22:00:00,15.08812284,0.0001459,53.2156,240.3403,64.1646,197.7646,0.0023375999999999,0.00037083,0.0,0 STARLINK-3703,1 52101U 22029P   22212.91667824  .00037083  00000-0  23376-2 0  9990,2 52101  53.2156 240.3403 0001459  64.1646 197.7646 15.08812284  1308,6917.965,95.439,540.839,538.821,0.0
52101.0,STARLINK-3703,PAYLOAD,2022-08-01 04:00:00,15.08847734,0.0001541,53.2158,239.2185,65.3403,115.2644,-0.0012167,-0.00019604,0.0,0 STARLINK-3703,1 52101U 22029P   22213.16667824 -.00019604  00000-0 -12167-2 0  9995,2 52101  53.2158 239.2185 0001541  65.3403 115.2644 15.08847734 21897,6917.857,95.437,540.788,538.656,0.0
52101.0,STARLINK-3703,PAYLOAD,2022-08-01 14:00:01,15.08829373,0.0001626999999999,53.2156,237.3491,55.7769,229.3194,0.00099552,0.00015587,0.0,0 STARLINK-3703,1 52101U 22029P   22213.58334491  .00015587  00000-0  99552-3 0  9990,2 52101  53.2156 237.3491 0001627  55.7769 229.3194 15.08829373  1307,6917.913000000001,95.438,540.903,538.6519999999998,0.0
52101.0,STARLINK-3703,PAYLOAD,2022-08-01 22:00:00,15.08814269,0.0001531999999999,53.216,235.8509,63.0648,233.6306,0.0026585,0.00042246,0.0,0 STARLINK-3703,1 52101U 22029P   22213.91667824  .00042246  00000-0  26585-2 0  9993,2 52101  53.2160 235.8509 0001532  63.0648 233.6306 15.08814269  1309,6917.959,95.439,540.884,538.764,0.0
52101.0,STARLINK-3703,PAYLOAD,2022-08-02 06:00:02,15.08852855,0.0001656,53.2162,234.3555,60.4818,247.8579,-0.0017111,-0.00027427,0.0,0 STARLINK-3703,1 52101U 22029P   22214.25002315 -.00027427  00000-0 -17111-2 0  9990,2 52101  53.2162 234.3555 0001656  60.4818 247.8579 15.08852855 22050,6917.840999999999,95.437,540.852,538.561,0.0
52101.0,STARLINK-3703,PAYLOAD,2022-08-02 14:00:01,15.08839922,0.0001701,53.2161,232.8597,54.9821,264.8909,0.00039546,6.011e-05,0.0,0 STARLINK-3703,1 52101U 22029P   22214.58334491  .00006011  00000-0  39546-3 0  9990,2 52101  53.2161 232.8597 0001701  54.9821 264.8909 15.08839922 22103,6917.880999999999,95.438,540.922,538.569,0.0
52101.0,STARLINK-3703,PAYLOAD,2022-08-03 14:00:01,15.0885021,0.0001763,53.2167,228.3703,54.9907,299.68,-0.00017709,-3.106e-05,0.0,0 STARLINK-3703,1 52101U 22029P   22215.58334491 -.00003106  00000-0 -17709-3 0  9992,2 52101  53.2167 228.3703 0001763  54.9907 299.6800 15.08850210  1309,6917.849,95.437,540.934,538.495,0.0
52101.0,STARLINK-3703,PAYLOAD,2022-08-03 20:00:01,15.08834988,0.0001658,53.2173,227.2467,61.0731,212.3102,0.0013950999999999,0.00021982,0.0,0 STARLINK-3703,1 52101U 22029P   22215.83334491  .00021982  00000-0  13951-2 0  9994,2 52101  53.2173 227.2467 0001658  61.0731 212.3102 15.08834988 22290,6917.896,95.438,540.908,538.614,0.0
52101.0,STARLINK-3703,PAYLOAD,2022-08-03 22:00:01,15.08825051,0.0001641,53.2171,226.8723,63.0823,303.2674,0.0029548,0.00047033,0.0,0 STARLINK-3703,1 52101U 22029P   22215.91668981  .00047033  00000-0  29548-2 0  9991,2 52101  53.2171 226.8723 0001641  63.0823 303.2674 15.08825051  1308,6917.926,95.439,540.9259999999998,538.656,0.0
52101.0,STARLINK-3703,PAYLOAD,2022-08-04 14:00:01,15.08859135,0.0001776999999999,53.217,223.881,55.3804,334.1099,-0.00066755,-0.00010902,0.0,0 STARLINK-3703,1 52101U 22029P   22216.58334491 -.00010902  00000-0 -66755-3 0  9990,2 52101  53.2170 223.8810 0001777  55.3804 334.1099 15.08859135  1308,6917.821999999999,95.436,540.9159999999998,538.4580000000002,0.0
52101.0,STARLINK-3703,PAYLOAD,2022-08-04 20:00:01,15.08847686,0.0001621999999999,53.2174,222.7575,61.542,246.666,-0.00049659,-8.184e-05,0.0,0 STARLINK-3703,1 52101U 22029P   22216.83334491 -.00008184  00000-0 -49659-3 0  9991,2 52101  53.2174 222.7575 0001622  61.5420 246.6660 15.08847686 22447,6917.857,95.437,540.844,538.6,0.0
